[Satellite]
VERSION=1.1
NAME=IRIDIUM 37 [+]
NICKNAME=IRIDIUM 37 [+]
TLE1=1 24968U 97056D   18020.95903938  .00013566 -12665-5  43096-4 0  9996
TLE2=2 24968  86.3776 227.3552 0366093 160.8684 200.6747 15.31075549 63807
